{
    "version": 0.6,
    "generator": "Overpass API 0.7.57.1 74a55df1",
    "osm3s": {
        "timestamp_osm_base": "2021-11-12T15:21:57Z",
        "timestamp_areas_base": "2021-11-12T06:29:28Z",
        "copyright": "The data included in this document is from www.openstreetmap.org. The data is made available under ODbL."
    },
    "elements": [
        {
            "type": "way",
            "id": 56693926,
            "center": {
                "lat": 42.0151209,
                "lon": 21.4074734
            },
            "nodes": [
                709048942,
                2324063941,
                2324063952,
                5260901738,
                2324063961,
                709048943,
                5260901739,
                709048944,
                709048945,
                709048942
            ],
            "tags": {
                "addr:city": "Cкoпje",
                "addr:city:en": "Skopje",
                "addr:country": "MK",
                "addr:housenumber": "21",
                "addr:postcode": "1000",
                "addr:street": "Булевар 8-ми Септември",
                "addr:street:en": "Boulevard 8th September",
                "brand": "Toyota",
                "building": "retail",
                "email": "info@toyota.com.mk",
                "fax": "+389 2 3088808",
                "name": "Тојота",
                "name:en": "Toyota",
                "opening_hours": "Mo-Fr 08:00-17:00, Sa 10:00-14:00",
                "operator": "Тојота Авто Центар ДООЕЛ Скопје",
                "phone": "+389 2 3088880",
                "service": "dealer;repair",
                "shop": "car",
                "website": "http://www.toyota.com.mk"
            }
        },
        {
            "type": "way",
            "id": 56693928,
            "center": {
                "lat": 42.0151437,
                "lon": 21.4037442
            },
            "nodes": [
                709048975,
                709048978,
                709048981,
                709048984,
                709048975
            ],
            "tags": {
                "addr:city": "Cкoпje",
                "addr:city:en": "Skopje",
                "addr:country": "MK",
                "addr:postcode": "1000",
                "addr:street": "Скупи",
                "addr:street:en": "Skupi",
                "brand": "Alfa Romeo / Lancia",
                "building": "retail",
                "int_name": "Alfa Romeo",
                "name": "Алфа Ромео",
                "shop": "car"
            }
        },
        {
            "type": "way",
            "id": 56693929,
            "center": {
                "lat": 42.0152547,
                "lon": 21.4010841
            },
            "nodes": [
                709049005,
                709049006,
                709049007,
                709049022,
                709049026,
                5260901724,
                5260901723,
                709049034,
                5260901722,
                5260901721,
                709049038,
                709049041,
                709049044,
                709049005
            ],
            "tags": {
                "addr:city": "Cкoпje",
                "addr:city:en": "Skopje",
                "addr:country": "MK",
                "addr:postcode": "1000",
                "addr:street": "Скупи",
                "addr:street:en": "Skupi",
                "brand": "Renault",
                "building": "retail",
                "name": "Рено",
                "name:en": "Renault",
                "shop": "car"
            }
        },
        {
            "type": "way",
            "id": 56694205,
            "center": {
                "lat": 42.0079507,
                "lon": 21.4006479
            },
            "nodes": [
                709050499,
                6887270392,
                8310540448,
                5268858032,
                3910765522,
                5268857919,
                709050499
            ],
            "tags": {
                "addr:city": "Cкoпje",
                "addr:city:en": "Skopje",
                "addr:country": "MK",
                "addr:housenumber": "бб",
                "addr:postcode": "1000",
                "addr:street": "Булевар Илинден",
                "addr:street:en": "Boulevard Ilinden",
                "brand": "Honda",
                "brand:wikidata": "Q9584",
                "brand:wikipedia": "en:Honda",
                "building": "yes",
                "name": "Хонда Македонија",
                "name:en": "Honda Macedonia",
                "opening_hours": "Mo-Fr 08:00-20:00; Sa,Su 10:00-15:30",
                "phone": "+389 2 3090707;+389 2 3083786;+389 2 3083796;+389 2 3083789",
                "service": "dealer;repair;parts;tyres",
                "shop": "car",
                "website": "http://honda.makpetrol.com.mk"
            }
        },
        {
            "type": "way",
            "id": 56695185,
            "center": {
                "lat": 42.0151762,
                "lon": 21.4020384
            },
            "nodes": [
                709060265,
                5260901725,
                5260901727,
                5260901726,
                709060273,
                5260901728,
                5260901729,
                5260901730,
                709060286,
                709060292,
                709060265
            ],
            "tags": {
                "addr:city": "Cкoпje",
                "addr:city:en": "Skopje",
                "addr:country": "MK",
                "addr:housenumber": "12",
                "addr:postcode": "1000",
                "addr:street": "Скупи",
                "addr:street:en": "Skupi",
                "brand": "Mazda",
                "building": "retail",
                "name": "Стара Мазда - Скупи 12",
                "shop": "car"
            }
        },
        {
            "type": "way",
            "id": 56695187,
            "center": {
                "lat": 42.0151434,
                "lon": 21.4028337
            },
            "nodes": [
                709060304,
                4126731957,
                5260901731,
                5260901732,
                4126731956,
                709060305,
                709060307,
                709060308,
                709060304
            ],
            "tags": {
                "addr:city": "Cкoпje",
                "addr:city:en": "Skopje",
                "addr:country": "MK",
                "addr:postcode": "1000",
                "addr:street": "Скупи",
                "addr:street:en": "Skupi",
                "brand": "Fiat",
                "building": "retail",
                "int_name": "Fiat",
                "name": "Фиат",
                "shop": "car"
            }
        },
        {
            "type": "way",
            "id": 56695194,
            "center": {
                "lat": 42.0150801,
                "lon": 21.404544
            },
            "nodes": [
                4126731953,
                5260901734,
                709060310,
                5260901737,
                4126731952,
                4126731954,
                5260901736,
                5260901735,
                4126731960,
                709060315,
                709060316,
                4126731953
            ],
            "tags": {
                "addr:city": "Cкoпje",
                "addr:city:en": "Skopje",
                "addr:country": "MK",
                "addr:postcode": "1000",
                "addr:street": "Скупи",
                "addr:street:en": "Skupi",
                "alt_name:mk": "Ситроен",
                "brand": "Citroën",
                "building": "retail",
                "int_name": "Citroën",
                "name": "Цитроен",
                "shop": "car"
            }
        },
        {
            "type": "way",
            "id": 174522668,
            "center": {
                "lat": 41.9909356,
                "lon": 21.4307803
            },
            "nodes": [
                4245221890,
                1851949682,
                1851949680,
                1851949666,
                1851949684,
                1851949672,
                1851949658,
                4245221890
            ],
            "tags": {
                "addr:street": "Св. Кирил и Методиј",
                "amenity": "parking",
                "name": "автомакедонија",
                "shop": "car"
            }
        },
        {
            "type": "way",
            "id": 176024288,
            "center": {
                "lat": 42.0021636,
                "lon": 21.4605126
            },
            "nodes": [
                1865883247,
                1865883242,
                1865883239,
                1865883244,
                1865883240,
                1865883245,
                1865883247
            ],
            "tags": {
                "addr:city": "Cкoпje",
                "addr:city:en": "Skopje",
                "addr:country": "MK",
                "addr:housenumber": "2",
                "addr:postcode": "1000",
                "addr:street": "16 Македонска Бригада",
                "addr:street:en": "16 Makedonska Brigada",
                "brand": "Opel;Chevrolet",
                "email": "automak@automakedonija.com.mk",
                "name": "Аутомакедонија",
                "name:en": "Automakedonija",
                "opening_hours": "Mo-Fr 08:00-17:00, Sa 08:00-14:00",
                "operator": "Аутомакедонија А.Д Скопје",
                "phone": "+389 2 3103130",
                "service": "dealer;repair;parts",
                "shop": "car",
                "website": "http://www.automakedonija.com.mk"
            }
        },
        {
            "type": "way",
            "id": 176133888,
            "center": {
                "lat": 41.998887,
                "lon": 21.4249557
            },
            "nodes": [
                1866944562,
                1866944558,
                1866944543,
                1866944544,
                5468057321,
                1866944562
            ],
            "tags": {
                "addr:city": "Cкoпje",
                "addr:city:en": "Skopje",
                "addr:country": "MK",
                "addr:housename": "Grawe Business Center",
                "addr:housenumber": "23",
                "addr:postcode": "1000",
                "addr:street": "Pirinska",
                "building": "office",
                "designation": "GPS Fleet Management",
                "name": "Граве Осигурување",
                "office": "insurance",
                "shop": "car",
                "source": "GPS Fleet Management",
                "website": "http://www.GPS.mk"
            }
        },
        {
            "type": "way",
            "id": 176338618,
            "center": {
                "lat": 42.0247435,
                "lon": 21.4330374
            },
            "nodes": [
                1868776821,
                1868776907,
                1868776830,
                1868776786,
                1868776821
            ],
            "tags": {
                "addr:city": "Cкoпje",
                "addr:city:en": "Skopje",
                "addr:country": "MK",
                "addr:postcode": "1000",
                "brand": "Audi;Volkswagen;Skoda;Porsche",
                "name": "Порше Македонија",
                "shop": "car"
            }
        },
        {
            "type": "way",
            "id": 189884673,
            "center": {
                "lat": 42.0065126,
                "lon": 21.4065152
            },
            "nodes": [
                2004962800,
                5345558582,
                5345558583,
                2004962778,
                5345558584,
                5345558585,
                5345558587,
                5345558586,
                2004962779,
                3647185893,
                3647185793,
                3647185693,
                2004962784,
                5345558589,
                1371602472,
                1371602473,
                5345558588,
                2004962770,
                2004962774,
                5345558576,
                5345558577,
                5345558578,
                2004962790,
                5345558579,
                5345558580,
                5345558581,
                2004962800
            ],
            "tags": {
                "addr:city": "Cкoпje",
                "addr:city:en": "Skopje",
                "addr:country": "MK",
                "addr:housenumber": "18",
                "addr:postcode": "1000",
                "addr:street": "Булевар 8-ми Септември",
                "brand": "Ford",
                "building": "commercial",
                "email": "contact@ford.com.mk",
                "fax": "+389 2 3067262",
                "name": "Ми-Да Гранд Моторс",
                "name:en": "Mi-Da Grand Motors",
                "opening_hours": "Mo-Fr 08:00-18:00; Sa 09:00-15:00",
                "operator": "Ford Mi-Da Grand Motors",
                "phone": "+389 2 3073103",
                "second_hand": "yes",
                "shop": "car",
                "website": "http://ford.com.mk/"
            }
        },
        {
            "type": "way",
            "id": 228748495,
            "center": {
                "lat": 41.9973541,
                "lon": 21.4829159
            },
            "nodes": [
                2374236144,
                2374236145,
                2374236142,
                2374236141,
                2174953634,
                2374236140,
                2374236144
            ],
            "tags": {
                "building": "yes",
                "name": "Киа Моторс Македонија",
                "shop": "car"
            }
        },
        {
            "type": "way",
            "id": 231952874,
            "center": {
                "lat": 41.991917,
                "lon": 21.4765685
            },
            "nodes": [
                2402737489,
                2402737437,
                2402737428,
                2402737434,
                2402737489
            ],
            "tags": {
                "name": "МакАутоСтар",
                "shop": "car"
            }
        },
        {
            "type": "way",
            "id": 410924975,
            "center": {
                "lat": 42.0150192,
                "lon": 21.4054107
            },
            "nodes": [
                4126731949,
                4126731963,
                4126731961,
                4126731946,
                4126731949
            ],
            "tags": {
                "addr:city": "Cкoпje",
                "addr:city:en": "Skopje",
                "addr:country": "MK",
                "addr:postcode": "1000",
                "addr:street": "Скупи",
                "addr:street:en": "Skupi",
                "brand": "Jeep",
                "building": "retail",
                "int_name": "Jeep",
                "name": "Џип",
                "shop": "car"
            }
        },
        {
            "type": "way",
            "id": 410924986,
            "center": {
                "lat": 42.0149725,
                "lon": 21.4063587
            },
            "nodes": [
                4126731959,
                4126731948,
                4126731947,
                4126731958,
                4126731959
            ],
            "tags": {
                "addr:city": "Cкoпje",
                "addr:city:en": "Skopje",
                "addr:country": "MK",
                "addr:postcode": "1000",
                "addr:street": "Скупи",
                "addr:street:en": "Skupi",
                "brand": "BMW",
                "building": "retail",
                "int_name": "BMW",
                "name": "БМВ",
                "shop": "car"
            }
        },
        {
            "type": "way",
            "id": 422688581,
            "center": {
                "lat": 42.0144152,
                "lon": 21.4034437
            },
            "nodes": [
                4224250100,
                4224249984,
                4224249983,
                4224250099,
                4224250100
            ],
            "tags": {
                "addr:city:en": "Skopje",
                "addr:country": "MK",
                "addr:postcode": "1000",
                "addr:street": "Скупи",
                "addr:street:en": "Skupi",
                "brand": "Suzuki",
                "name": "Suzuki",
                "shop": "car"
            }
        },
        {
            "type": "way",
            "id": 422688583,
            "center": {
                "lat": 42.0142921,
                "lon": 21.4042588
            },
            "nodes": [
                4224250092,
                4224250091,
                4224249985,
                4224249986,
                4224250092
            ],
            "tags": {
                "addr:city:en": "Skopje",
                "addr:country": "MK",
                "addr:postcode": "1000",
                "addr:street": "Скупи",
                "addr:street:en": "Skupi",
                "brand": "Peugeot",
                "building": "retail",
                "int_name": "Peugeot",
                "name": "Пежо",
                "shop": "car"
            }
        },
        {
            "type": "way",
            "id": 422957038,
            "center": {
                "lat": 42.0133874,
                "lon": 21.3876895
            },
            "nodes": [
                4226751103,
                4226751107,
                4226751101,
                4226751099,
                4226751103
            ],
            "tags": {
                "addr:city": "Скопје",
                "addr:country": "MK",
                "addr:housenumber": "37",
                "addr:street": "Скупи",
                "brand": "Hyundai",
                "shop": "car"
            }
        },
        {
            "type": "way",
            "id": 422957040,
            "center": {
                "lat": 42.0151206,
                "lon": 21.4068492
            },
            "nodes": [
                4226751126,
                4226751127,
                4226751119,
                4126731959,
                4226751126
            ],
            "tags": {
                "addr:city": "Cкoпje",
                "addr:city:en": "Skopje",
                "addr:country": "MK",
                "addr:postcode": "1000",
                "addr:street": "Скупи",
                "addr:street:en": "Skupi",
                "brand": "Mini",
                "building": "retail",
                "name": "Mini",
                "shop": "car"
            }
        },
        {
            "type": "way",
            "id": 477342113,
            "center": {
                "lat": 41.9947662,
                "lon": 21.4214748
            },
            "nodes": [
                4707142654,
                4707142652,
                475380854,
                4707142653,
                4707142654
            ],
            "tags": {
                "building": "yes",
                "name": "Champion",
                "shop": "car"
            }
        },
        {
            "type": "way",
            "id": 516053732,
            "center": {
                "lat": 41.9552496,
                "lon": 21.483056
            },
            "nodes": [
                5038424257,
                5038424255,
                5038424266,
                5038424264,
                5038424257
            ],
            "tags": {
                "building": "shop",
                "name": "Автобанда",
                "shop": "car"
            }
        },
        {
            "type": "way",
            "id": 769697090,
            "center": {
                "lat": 42.0255175,
                "lon": 21.4075751
            },
            "nodes": [
                7184731768,
                7184731767,
                7184731766,
                8197105551,
                7184731768
            ],
            "tags": {
                "landuse": "commercial",
                "shop": "car"
            }
        },
        {
            "type": "way",
            "id": 849715009,
            "center": {
                "lat": 42.02577,
                "lon": 21.4256411
            },
            "nodes": [
                7927606152,
                7927606151,
                7927606150,
                7927606149,
                7927606148,
                778381611,
                7927606147,
                7927606152
            ],
            "tags": {
                "second_hand": "only",
                "shop": "car"
            }
        },
        {
            "type": "way",
            "id": 929607481,
            "center": {
                "lat": 41.9922072,
                "lon": 21.4754564
            },
            "nodes": [
                8621166620,
                8621166621,
                8621166622,
                8621166623,
                8621166620
            ],
            "tags": {
                "addr:city": "Cкoпje",
                "addr:housenumber": "2",
                "addr:postcode": "1000",
                "addr:street": "Индустриска",
                "brand": "Mercedes-Benz",
                "brand:wikidata": "Q36008",
                "brand:wikipedia": "en:Mercedes-Benz",
                "building": "yes",
                "name": "Mercedes-Benz",
                "opening_hours": "Mo-Fr 09:00-18:00; Sa 09:00-14:00; Su off",
                "phone": "+38922580000",
                "second_hand": "yes",
                "service:vehicle:car_repair": "yes",
                "service:vehicle:new_car_sales": "yes",
                "service:vehicle:used_car_sales": "yes",
                "shop": "car",
                "website": "https://www.mercedes-benz.com.mk/mk/desktop/home.html"
            }
        },
        {
            "type": "way",
            "id": 982717979,
            "center": {
                "lat": 41.9787012,
                "lon": 21.4478089
            },
            "nodes": [
                9087424053,
                9087424054,
                9087424055,
                9087424056,
                9087424057,
                9087424058,
                9087424059,
                9087424060,
                9087424061,
                9087424064,
                9087424062,
                9087424063,
                9087424053
            ],
            "tags": {
                "building": "yes",
                "shop": "car"
            }
        }
    ]
}