{
  "version": 0.6,
  "generator": "Overpass API 0.7.57 93a4d346",
  "osm3s": {
    "timestamp_osm_base": "2021-11-10T14:25:35Z",
    "copyright": "The data included in this document is from www.openstreetmap.org. The data is made available under ODbL."
  },
  "elements": [

{
  "type": "node",
  "id": 475380855,
  "lat": 41.9954910,
  "lon": 21.4119012,
  "tags": {
    "name": "Cilas",
    "operator": "Citroën",
    "shop": "car"
  }
},
{
  "type": "node",
  "id": 2365673307,
  "lat": 41.9995932,
  "lon": 21.4868469,
  "tags": {
    "name": "Автопазар",
    "shop": "car"
  }
},
{
  "type": "node",
  "id": 4511029494,
  "lat": 41.9973892,
  "lon": 21.4854646,
  "tags": {
    "addr:postcode": "1000",
    "addr:street": "Перо Наков",
    "internet_access": "wlan",
    "name": "Премиум Ауто Центрум",
    "name:en": "Premium Auto Zentrum",
    "name:mk": "Премиум Ауто Центрум",
    "opening_hours": "Mo-Sa 08:00-20:00",
    "shop": "car"
  }
},
{
  "type": "node",
  "id": 6827072093,
  "lat": 41.9996574,
  "lon": 21.4279208,
  "tags": {
    "brand": "Cadillac",
    "brand:wikidata": "Q27436",
    "brand:wikipedia": "en:Cadillac",
    "name": "Cadillac",
    "shop": "car"
  }
},
{
  "type": "node",
  "id": 9200216165,
  "lat": 41.9974240,
  "lon": 21.4400818,
  "tags": {
    "shop": "car"
  }
},
{
  "type": "way",
  "id": 56693926,
  "nodes": [
    709048942,
    2324063941,
    2324063952,
    5260901738,
    2324063961,
    709048943,
    5260901739,
    709048944,
    709048945,
    709048942
  ],
  "tags": {
    "addr:city": "Cкoпje",
    "addr:city:en": "Skopje",
    "addr:country": "MK",
    "addr:housenumber": "21",
    "addr:postcode": "1000",
    "addr:street": "Булевар 8-ми Септември",
    "addr:street:en": "Boulevard 8th September",
    "brand": "Toyota",
    "building": "retail",
    "email": "info@toyota.com.mk",
    "fax": "+389 2 3088808",
    "name": "Тојота",
    "name:en": "Toyota",
    "opening_hours": "Mo-Fr 08:00-17:00, Sa 10:00-14:00",
    "operator": "Тојота Авто Центар ДООЕЛ Скопје",
    "phone": "+389 2 3088880",
    "service": "dealer;repair",
    "shop": "car",
    "website": "http://www.toyota.com.mk"
  }
},
{
  "type": "way",
  "id": 56693928,
  "nodes": [
    709048975,
    709048978,
    709048981,
    709048984,
    709048975
  ],
  "tags": {
    "addr:city": "Cкoпje",
    "addr:city:en": "Skopje",
    "addr:country": "MK",
    "addr:postcode": "1000",
    "addr:street": "Скупи",
    "addr:street:en": "Skupi",
    "brand": "Alfa Romeo / Lancia",
    "building": "retail",
    "int_name": "Alfa Romeo",
    "name": "Алфа Ромео",
    "shop": "car"
  }
},
{
  "type": "way",
  "id": 56693929,
  "nodes": [
    709049005,
    709049006,
    709049007,
    709049022,
    709049026,
    5260901724,
    5260901723,
    709049034,
    5260901722,
    5260901721,
    709049038,
    709049041,
    709049044,
    709049005
  ],
  "tags": {
    "addr:city": "Cкoпje",
    "addr:city:en": "Skopje",
    "addr:country": "MK",
    "addr:postcode": "1000",
    "addr:street": "Скупи",
    "addr:street:en": "Skupi",
    "brand": "Renault",
    "building": "retail",
    "name": "Рено",
    "name:en": "Renault",
    "shop": "car"
  }
},
{
  "type": "way",
  "id": 56694205,
  "nodes": [
    709050499,
    6887270392,
    8310540448,
    5268858032,
    3910765522,
    5268857919,
    709050499
  ],
  "tags": {
    "addr:city": "Cкoпje",
    "addr:city:en": "Skopje",
    "addr:country": "MK",
    "addr:housenumber": "бб",
    "addr:postcode": "1000",
    "addr:street": "Булевар Илинден",
    "addr:street:en": "Boulevard Ilinden",
    "brand": "Honda",
    "brand:wikidata": "Q9584",
    "brand:wikipedia": "en:Honda",
    "building": "yes",
    "name": "Хонда Македонија",
    "name:en": "Honda Macedonia",
    "opening_hours": "Mo-Fr 08:00-20:00; Sa,Su 10:00-15:30",
    "phone": "+389 2 3090707;+389 2 3083786;+389 2 3083796;+389 2 3083789",
    "service": "dealer;repair;parts;tyres",
    "shop": "car",
    "website": "http://honda.makpetrol.com.mk"
  }
},
{
  "type": "way",
  "id": 56695185,
  "nodes": [
    709060265,
    5260901725,
    5260901727,
    5260901726,
    709060273,
    5260901728,
    5260901729,
    5260901730,
    709060286,
    709060292,
    709060265
  ],
  "tags": {
    "addr:city": "Cкoпje",
    "addr:city:en": "Skopje",
    "addr:country": "MK",
    "addr:housenumber": "12",
    "addr:postcode": "1000",
    "addr:street": "Скупи",
    "addr:street:en": "Skupi",
    "brand": "Mazda",
    "building": "retail",
    "name": "Стара Мазда - Скупи 12",
    "shop": "car"
  }
},
{
  "type": "way",
  "id": 56695187,
  "nodes": [
    709060304,
    4126731957,
    5260901731,
    5260901732,
    4126731956,
    709060305,
    709060307,
    709060308,
    709060304
  ],
  "tags": {
    "addr:city": "Cкoпje",
    "addr:city:en": "Skopje",
    "addr:country": "MK",
    "addr:postcode": "1000",
    "addr:street": "Скупи",
    "addr:street:en": "Skupi",
    "brand": "Fiat",
    "building": "retail",
    "int_name": "Fiat",
    "name": "Фиат",
    "shop": "car"
  }
},
{
  "type": "way",
  "id": 56695194,
  "nodes": [
    4126731953,
    5260901734,
    709060310,
    5260901737,
    4126731952,
    4126731954,
    5260901736,
    5260901735,
    4126731960,
    709060315,
    709060316,
    4126731953
  ],
  "tags": {
    "addr:city": "Cкoпje",
    "addr:city:en": "Skopje",
    "addr:country": "MK",
    "addr:postcode": "1000",
    "addr:street": "Скупи",
    "addr:street:en": "Skupi",
    "alt_name:mk": "Ситроен",
    "brand": "Citroën",
    "building": "retail",
    "int_name": "Citroën",
    "name": "Цитроен",
    "shop": "car"
  }
},
{
  "type": "way",
  "id": 124053422,
  "nodes": [
    1381659940,
    1381659943,
    1381659942,
    1381659941,
    1381659940
  ],
  "tags": {
    "brand": "Lifan",
    "building": "shop",
    "name": "АБЦ-Бротхер",
    "shop": "car"
  }
},
{
  "type": "way",
  "id": 174522668,
  "nodes": [
    4245221890,
    1851949682,
    1851949680,
    1851949666,
    1851949684,
    1851949672,
    1851949658,
    4245221890
  ],
  "tags": {
    "addr:street": "Св. Кирил и Методиј",
    "amenity": "parking",
    "name": "автомакедонија",
    "shop": "car"
  }
},
{
  "type": "way",
  "id": 176024288,
  "nodes": [
    1865883247,
    1865883242,
    1865883239,
    1865883244,
    1865883240,
    1865883245,
    1865883247
  ],
  "tags": {
    "addr:city": "Cкoпje",
    "addr:city:en": "Skopje",
    "addr:country": "MK",
    "addr:housenumber": "2",
    "addr:postcode": "1000",
    "addr:street": "16 Македонска Бригада",
    "addr:street:en": "16 Makedonska Brigada",
    "brand": "Opel;Chevrolet",
    "email": "automak@automakedonija.com.mk",
    "name": "Аутомакедонија",
    "name:en": "Automakedonija",
    "opening_hours": "Mo-Fr 08:00-17:00, Sa 08:00-14:00",
    "operator": "Аутомакедонија А.Д Скопје",
    "phone": "+389 2 3103130",
    "service": "dealer;repair;parts",
    "shop": "car",
    "website": "http://www.automakedonija.com.mk"
  }
},
{
  "type": "way",
  "id": 176133888,
  "nodes": [
    1866944562,
    1866944558,
    1866944543,
    1866944544,
    5468057321,
    1866944562
  ],
  "tags": {
    "addr:city": "Cкoпje",
    "addr:city:en": "Skopje",
    "addr:country": "MK",
    "addr:housename": "Grawe Business Center",
    "addr:housenumber": "23",
    "addr:postcode": "1000",
    "addr:street": "Pirinska",
    "building": "office",
    "designation": "GPS Fleet Management",
    "name": "Граве Осигурување",
    "office": "insurance",
    "shop": "car",
    "source": "GPS Fleet Management",
    "website": "http://www.GPS.mk"
  }
},
{
  "type": "way",
  "id": 176338618,
  "nodes": [
    1868776821,
    1868776907,
    1868776830,
    1868776786,
    1868776821
  ],
  "tags": {
    "addr:city": "Cкoпje",
    "addr:city:en": "Skopje",
    "addr:country": "MK",
    "addr:postcode": "1000",
    "brand": "Audi;Volkswagen;Skoda;Porsche",
    "name": "Порше Македонија",
    "shop": "car"
  }
},
{
  "type": "way",
  "id": 189884673,
  "nodes": [
    2004962800,
    5345558582,
    5345558583,
    2004962778,
    5345558584,
    5345558585,
    5345558587,
    5345558586,
    2004962779,
    3647185893,
    3647185793,
    3647185693,
    2004962784,
    5345558589,
    1371602472,
    1371602473,
    5345558588,
    2004962770,
    2004962774,
    5345558576,
    5345558577,
    5345558578,
    2004962790,
    5345558579,
    5345558580,
    5345558581,
    2004962800
  ],
  "tags": {
    "addr:city": "Cкoпje",
    "addr:city:en": "Skopje",
    "addr:country": "MK",
    "addr:housenumber": "18",
    "addr:postcode": "1000",
    "addr:street": "Булевар 8-ми Септември",
    "brand": "Ford",
    "building": "commercial",
    "email": "contact@ford.com.mk",
    "fax": "+389 2 3067262",
    "name": "Ми-Да Гранд Моторс",
    "name:en": "Mi-Da Grand Motors",
    "opening_hours": "Mo-Fr 08:00-18:00; Sa 09:00-15:00",
    "operator": "Ford Mi-Da Grand Motors",
    "phone": "+389 2 3073103",
    "second_hand": "yes",
    "shop": "car",
    "website": "http://ford.com.mk/"
  }
},
{
  "type": "way",
  "id": 228748495,
  "nodes": [
    2374236144,
    2374236145,
    2374236142,
    2374236141,
    2174953634,
    2374236140,
    2374236144
  ],
  "tags": {
    "building": "yes",
    "name": "Киа Моторс Македонија",
    "shop": "car"
  }
},
{
  "type": "way",
  "id": 231952874,
  "nodes": [
    2402737489,
    2402737437,
    2402737428,
    2402737434,
    2402737489
  ],
  "tags": {
    "name": "МакАутоСтар",
    "shop": "car"
  }
},
{
  "type": "way",
  "id": 410924975,
  "nodes": [
    4126731949,
    4126731963,
    4126731961,
    4126731946,
    4126731949
  ],
  "tags": {
    "addr:city": "Cкoпje",
    "addr:city:en": "Skopje",
    "addr:country": "MK",
    "addr:postcode": "1000",
    "addr:street": "Скупи",
    "addr:street:en": "Skupi",
    "brand": "Jeep",
    "building": "retail",
    "int_name": "Jeep",
    "name": "Џип",
    "shop": "car"
  }
},
{
  "type": "way",
  "id": 410924986,
  "nodes": [
    4126731959,
    4126731948,
    4126731947,
    4126731958,
    4126731959
  ],
  "tags": {
    "addr:city": "Cкoпje",
    "addr:city:en": "Skopje",
    "addr:country": "MK",
    "addr:postcode": "1000",
    "addr:street": "Скупи",
    "addr:street:en": "Skupi",
    "brand": "BMW",
    "building": "retail",
    "int_name": "BMW",
    "name": "БМВ",
    "shop": "car"
  }
},
{
  "type": "way",
  "id": 415864948,
  "nodes": [
    4168097995,
    4168097997,
    4168097996,
    4168097992,
    4168097995
  ],
  "tags": {
    "barrier": "wall",
    "brand": "Opel",
    "name": "Opel",
    "shop": "car"
  }
},
{
  "type": "way",
  "id": 422688581,
  "nodes": [
    4224250100,
    4224249984,
    4224249983,
    4224250099,
    4224250100
  ],
  "tags": {
    "addr:city:en": "Skopje",
    "addr:country": "MK",
    "addr:postcode": "1000",
    "addr:street": "Скупи",
    "addr:street:en": "Skupi",
    "brand": "Suzuki",
    "name": "Suzuki",
    "shop": "car"
  }
},
{
  "type": "way",
  "id": 422688583,
  "nodes": [
    4224250092,
    4224250091,
    4224249985,
    4224249986,
    4224250092
  ],
  "tags": {
    "addr:city:en": "Skopje",
    "addr:country": "MK",
    "addr:postcode": "1000",
    "addr:street": "Скупи",
    "addr:street:en": "Skupi",
    "brand": "Peugeot",
    "building": "retail",
    "int_name": "Peugeot",
    "name": "Пежо",
    "shop": "car"
  }
},
{
  "type": "way",
  "id": 422957038,
  "nodes": [
    4226751103,
    4226751107,
    4226751101,
    4226751099,
    4226751103
  ],
  "tags": {
    "addr:city": "Скопје",
    "addr:country": "MK",
    "addr:housenumber": "37",
    "addr:street": "Скупи",
    "brand": "Hyundai",
    "shop": "car"
  }
},
{
  "type": "way",
  "id": 422957040,
  "nodes": [
    4226751126,
    4226751127,
    4226751119,
    4126731959,
    4226751126
  ],
  "tags": {
    "addr:city": "Cкoпje",
    "addr:city:en": "Skopje",
    "addr:country": "MK",
    "addr:postcode": "1000",
    "addr:street": "Скупи",
    "addr:street:en": "Skupi",
    "brand": "Mini",
    "building": "retail",
    "name": "Mini",
    "shop": "car"
  }
},
{
  "type": "way",
  "id": 477342113,
  "nodes": [
    4707142654,
    4707142652,
    475380854,
    4707142653,
    4707142654
  ],
  "tags": {
    "building": "yes",
    "name": "Champion",
    "shop": "car"
  }
},
{
  "type": "way",
  "id": 516053732,
  "nodes": [
    5038424257,
    5038424255,
    5038424266,
    5038424264,
    5038424257
  ],
  "tags": {
    "building": "shop",
    "name": "Автобанда",
    "shop": "car"
  }
},
{
  "type": "way",
  "id": 769697090,
  "nodes": [
    7184731768,
    7184731767,
    7184731766,
    8197105551,
    7184731768
  ],
  "tags": {
    "landuse": "commercial",
    "shop": "car"
  }
},
{
  "type": "way",
  "id": 849715009,
  "nodes": [
    7927606152,
    7927606151,
    7927606150,
    7927606149,
    7927606148,
    778381611,
    7927606147,
    7927606152
  ],
  "tags": {
    "second_hand": "only",
    "shop": "car"
  }
},
{
  "type": "way",
  "id": 929607481,
  "nodes": [
    8621166620,
    8621166621,
    8621166622,
    8621166623,
    8621166620
  ],
  "tags": {
    "addr:city": "Cкoпje",
    "addr:housenumber": "2",
    "addr:postcode": "1000",
    "addr:street": "Индустриска",
    "brand": "Mercedes-Benz",
    "brand:wikidata": "Q36008",
    "brand:wikipedia": "en:Mercedes-Benz",
    "building": "yes",
    "name": "Mercedes-Benz",
    "opening_hours": "Mo-Fr 09:00-18:00; Sa 09:00-14:00; Su off",
    "phone": "+38922580000",
    "second_hand": "yes",
    "service:vehicle:car_repair": "yes",
    "service:vehicle:new_car_sales": "yes",
    "service:vehicle:used_car_sales": "yes",
    "shop": "car",
    "website": "https://www.mercedes-benz.com.mk/mk/desktop/home.html"
  }
},
{
  "type": "way",
  "id": 982717979,
  "nodes": [
    9087424053,
    9087424054,
    9087424055,
    9087424056,
    9087424057,
    9087424058,
    9087424059,
    9087424060,
    9087424061,
    9087424064,
    9087424062,
    9087424063,
    9087424053
  ],
  "tags": {
    "building": "yes",
    "shop": "car"
  }
},
{
  "type": "node",
  "id": 5038424255,
  "lat": 41.9552416,
  "lon": 21.4829055
},
{
  "type": "node",
  "id": 5038424257,
  "lat": 41.9553614,
  "lon": 21.4830699
},
{
  "type": "node",
  "id": 5038424264,
  "lat": 41.9552576,
  "lon": 21.4832064
},
{
  "type": "node",
  "id": 5038424266,
  "lat": 41.9551379,
  "lon": 21.4830420
},
{
  "type": "node",
  "id": 4226751099,
  "lat": 42.0132457,
  "lon": 21.3878165
},
{
  "type": "node",
  "id": 4226751101,
  "lat": 42.0133648,
  "lon": 21.3879166
},
{
  "type": "node",
  "id": 4226751103,
  "lat": 42.0134101,
  "lon": 21.3874624
},
{
  "type": "node",
  "id": 4226751107,
  "lat": 42.0135292,
  "lon": 21.3875626
},
{
  "type": "node",
  "id": 709050499,
  "lat": 42.0078160,
  "lon": 21.4004836
},
{
  "type": "node",
  "id": 3910765522,
  "lat": 42.0080196,
  "lon": 21.4008071
},
{
  "type": "node",
  "id": 5268857919,
  "lat": 42.0078092,
  "lon": 21.4007884
},
{
  "type": "node",
  "id": 5268858032,
  "lat": 42.0080774,
  "lon": 21.4008123
},
{
  "type": "node",
  "id": 6887270392,
  "lat": 42.0080413,
  "lon": 21.4005055
},
{
  "type": "node",
  "id": 8310540448,
  "lat": 42.0080923,
  "lon": 21.4005088
},
{
  "type": "node",
  "id": 1371602472,
  "lat": 42.0063569,
  "lon": 21.4064430
},
{
  "type": "node",
  "id": 1371602473,
  "lat": 42.0063909,
  "lon": 21.4062045
},
{
  "type": "node",
  "id": 2004962770,
  "lat": 42.0065196,
  "lon": 21.4062153
},
{
  "type": "node",
  "id": 2004962774,
  "lat": 42.0065478,
  "lon": 21.4062260
},
{
  "type": "node",
  "id": 2004962778,
  "lat": 42.0066746,
  "lon": 21.4064771
},
{
  "type": "node",
  "id": 2004962779,
  "lat": 42.0066428,
  "lon": 21.4065987
},
{
  "type": "node",
  "id": 2004962784,
  "lat": 42.0064352,
  "lon": 21.4065728
},
{
  "type": "node",
  "id": 2004962790,
  "lat": 42.0066258,
  "lon": 21.4062905
},
{
  "type": "node",
  "id": 2004962800,
  "lat": 42.0066663,
  "lon": 21.4063823
},
{
  "type": "node",
  "id": 3647185693,
  "lat": 42.0064256,
  "lon": 21.4068317
},
{
  "type": "node",
  "id": 3647185793,
  "lat": 42.0066057,
  "lon": 21.4068471
},
{
  "type": "node",
  "id": 3647185893,
  "lat": 42.0066162,
  "lon": 21.4065961
},
{
  "type": "node",
  "id": 5345558576,
  "lat": 42.0065703,
  "lon": 21.4062390
},
{
  "type": "node",
  "id": 5345558577,
  "lat": 42.0065896,
  "lon": 21.4062514
},
{
  "type": "node",
  "id": 5345558578,
  "lat": 42.0066103,
  "lon": 21.4062705
},
{
  "type": "node",
  "id": 5345558579,
  "lat": 42.0066391,
  "lon": 21.4063112
},
{
  "type": "node",
  "id": 5345558580,
  "lat": 42.0066516,
  "lon": 21.4063373
},
{
  "type": "node",
  "id": 5345558581,
  "lat": 42.0066608,
  "lon": 21.4063593
},
{
  "type": "node",
  "id": 5345558582,
  "lat": 42.0066708,
  "lon": 21.4064109
},
{
  "type": "node",
  "id": 5345558583,
  "lat": 42.0066724,
  "lon": 21.4064371
},
{
  "type": "node",
  "id": 5345558584,
  "lat": 42.0066734,
  "lon": 21.4065092
},
{
  "type": "node",
  "id": 5345558585,
  "lat": 42.0066687,
  "lon": 21.4065391
},
{
  "type": "node",
  "id": 5345558586,
  "lat": 42.0066528,
  "lon": 21.4065812
},
{
  "type": "node",
  "id": 5345558587,
  "lat": 42.0066630,
  "lon": 21.4065607
},
{
  "type": "node",
  "id": 5345558588,
  "lat": 42.0063935,
  "lon": 21.4061834
},
{
  "type": "node",
  "id": 5345558589,
  "lat": 42.0063506,
  "lon": 21.4064874
},
{
  "type": "node",
  "id": 1851949672,
  "lat": 41.9911177,
  "lon": 21.4297317
},
{
  "type": "node",
  "id": 1851949684,
  "lat": 41.9912533,
  "lon": 21.4298577
},
{
  "type": "node",
  "id": 475380854,
  "lat": 41.9947285,
  "lon": 21.4214079
},
{
  "type": "node",
  "id": 4707142652,
  "lat": 41.9947484,
  "lon": 21.4215554
},
{
  "type": "node",
  "id": 4707142653,
  "lat": 41.9947841,
  "lon": 21.4213943
},
{
  "type": "node",
  "id": 4707142654,
  "lat": 41.9948040,
  "lon": 21.4215418
},
{
  "type": "node",
  "id": 1866944558,
  "lat": 41.9987099,
  "lon": 21.4250154
},
{
  "type": "node",
  "id": 1851949658,
  "lat": 41.9908486,
  "lon": 21.4303566
},
{
  "type": "node",
  "id": 1851949666,
  "lat": 41.9910969,
  "lon": 21.4305560
},
{
  "type": "node",
  "id": 1851949680,
  "lat": 41.9908123,
  "lon": 21.4318288
},
{
  "type": "node",
  "id": 1851949682,
  "lat": 41.9906178,
  "lon": 21.4314570
},
{
  "type": "node",
  "id": 4245221890,
  "lat": 41.9910314,
  "lon": 21.4305034
},
{
  "type": "node",
  "id": 1866944543,
  "lat": 41.9988577,
  "lon": 21.4251982
},
{
  "type": "node",
  "id": 1866944544,
  "lat": 41.9990641,
  "lon": 21.4248959
},
{
  "type": "node",
  "id": 1866944562,
  "lat": 41.9989164,
  "lon": 21.4247132
},
{
  "type": "node",
  "id": 5468057321,
  "lat": 41.9989758,
  "lon": 21.4247867
},
{
  "type": "node",
  "id": 9087424053,
  "lat": 41.9784529,
  "lon": 21.4470699
},
{
  "type": "node",
  "id": 9087424054,
  "lat": 41.9784968,
  "lon": 21.4470055
},
{
  "type": "node",
  "id": 9087424055,
  "lat": 41.9785925,
  "lon": 21.4470243
},
{
  "type": "node",
  "id": 9087424056,
  "lat": 41.9786583,
  "lon": 21.4470645
},
{
  "type": "node",
  "id": 9087424061,
  "lat": 41.9789634,
  "lon": 21.4486122
},
{
  "type": "node",
  "id": 9087424062,
  "lat": 41.9780521,
  "lon": 21.4478853
},
{
  "type": "node",
  "id": 9087424063,
  "lat": 41.9783074,
  "lon": 21.4473676
},
{
  "type": "node",
  "id": 9087424064,
  "lat": 41.9786665,
  "lon": 21.4483754
},
{
  "type": "node",
  "id": 9087424057,
  "lat": 41.9793183,
  "lon": 21.4476278
},
{
  "type": "node",
  "id": 9087424058,
  "lat": 41.9793422,
  "lon": 21.4476707
},
{
  "type": "node",
  "id": 9087424059,
  "lat": 41.9793502,
  "lon": 21.4477592
},
{
  "type": "node",
  "id": 9087424060,
  "lat": 41.9793083,
  "lon": 21.4478477
},
{
  "type": "node",
  "id": 1865883239,
  "lat": 42.0021350,
  "lon": 21.4610302
},
{
  "type": "node",
  "id": 1865883240,
  "lat": 42.0017882,
  "lon": 21.4602819
},
{
  "type": "node",
  "id": 1865883242,
  "lat": 42.0025889,
  "lon": 21.4608830
},
{
  "type": "node",
  "id": 1865883244,
  "lat": 42.0020234,
  "lon": 21.4604375
},
{
  "type": "node",
  "id": 1865883245,
  "lat": 42.0017384,
  "lon": 21.4599949
},
{
  "type": "node",
  "id": 1865883247,
  "lat": 42.0024599,
  "lon": 21.4600056
},
{
  "type": "node",
  "id": 2402737437,
  "lat": 41.9914392,
  "lon": 21.4755175
},
{
  "type": "node",
  "id": 8621166622,
  "lat": 41.9918636,
  "lon": 21.4754960
},
{
  "type": "node",
  "id": 8621166623,
  "lat": 41.9919152,
  "lon": 21.4752219
},
{
  "type": "node",
  "id": 2402737428,
  "lat": 41.9911764,
  "lon": 21.4771047
},
{
  "type": "node",
  "id": 2402737489,
  "lat": 41.9926575,
  "lon": 21.4759299
},
{
  "type": "node",
  "id": 8621166620,
  "lat": 41.9925509,
  "lon": 21.4754101
},
{
  "type": "node",
  "id": 8621166621,
  "lat": 41.9925018,
  "lon": 21.4756908
},
{
  "type": "node",
  "id": 2402737434,
  "lat": 41.9922937,
  "lon": 21.4776195
},
{
  "type": "node",
  "id": 2174953634,
  "lat": 41.9974362,
  "lon": 21.4830081
},
{
  "type": "node",
  "id": 2374236140,
  "lat": 41.9975256,
  "lon": 21.4829988
},
{
  "type": "node",
  "id": 2374236141,
  "lat": 41.9974409,
  "lon": 21.4830903
},
{
  "type": "node",
  "id": 2374236142,
  "lat": 41.9972035,
  "lon": 21.4831148
},
{
  "type": "node",
  "id": 2374236144,
  "lat": 41.9975095,
  "lon": 21.4827171
},
{
  "type": "node",
  "id": 2374236145,
  "lat": 41.9971827,
  "lon": 21.4827509
},
{
  "type": "node",
  "id": 709048975,
  "lat": 42.0152691,
  "lon": 21.4035653
},
{
  "type": "node",
  "id": 709048978,
  "lat": 42.0150353,
  "lon": 21.4035461
},
{
  "type": "node",
  "id": 709048981,
  "lat": 42.0150183,
  "lon": 21.4039231
},
{
  "type": "node",
  "id": 709048984,
  "lat": 42.0152520,
  "lon": 21.4039422
},
{
  "type": "node",
  "id": 709049005,
  "lat": 42.0154204,
  "lon": 21.4007212
},
{
  "type": "node",
  "id": 709049006,
  "lat": 42.0153931,
  "lon": 21.4014592
},
{
  "type": "node",
  "id": 709049007,
  "lat": 42.0152090,
  "lon": 21.4014469
},
{
  "type": "node",
  "id": 709049022,
  "lat": 42.0152151,
  "lon": 21.4012828
},
{
  "type": "node",
  "id": 709049026,
  "lat": 42.0151127,
  "lon": 21.4012759
},
{
  "type": "node",
  "id": 709049034,
  "lat": 42.0150903,
  "lon": 21.4010959
},
{
  "type": "node",
  "id": 709049038,
  "lat": 42.0151276,
  "lon": 21.4009405
},
{
  "type": "node",
  "id": 709049041,
  "lat": 42.0152289,
  "lon": 21.4009472
},
{
  "type": "node",
  "id": 709049044,
  "lat": 42.0152378,
  "lon": 21.4007090
},
{
  "type": "node",
  "id": 709060265,
  "lat": 42.0151846,
  "lon": 21.4023380
},
{
  "type": "node",
  "id": 709060273,
  "lat": 42.0151036,
  "lon": 21.4017590
},
{
  "type": "node",
  "id": 709060286,
  "lat": 42.0152817,
  "lon": 21.4017674
},
{
  "type": "node",
  "id": 709060292,
  "lat": 42.0152443,
  "lon": 21.4023243
},
{
  "type": "node",
  "id": 709060304,
  "lat": 42.0150735,
  "lon": 21.4029754
},
{
  "type": "node",
  "id": 709060305,
  "lat": 42.0150316,
  "lon": 21.4026871
},
{
  "type": "node",
  "id": 709060307,
  "lat": 42.0152669,
  "lon": 21.4027041
},
{
  "type": "node",
  "id": 709060308,
  "lat": 42.0152458,
  "lon": 21.4029804
},
{
  "type": "node",
  "id": 4126731956,
  "lat": 42.0150199,
  "lon": 21.4028547
},
{
  "type": "node",
  "id": 4126731957,
  "lat": 42.0150499,
  "lon": 21.4029656
},
{
  "type": "node",
  "id": 4224249983,
  "lat": 42.0141218,
  "lon": 21.4034765
},
{
  "type": "node",
  "id": 4224249984,
  "lat": 42.0141447,
  "lon": 21.4032915
},
{
  "type": "node",
  "id": 4224250099,
  "lat": 42.0146897,
  "lon": 21.4035959
},
{
  "type": "node",
  "id": 4224250100,
  "lat": 42.0147087,
  "lon": 21.4033813
},
{
  "type": "node",
  "id": 5260901721,
  "lat": 42.0151133,
  "lon": 21.4009852
},
{
  "type": "node",
  "id": 5260901722,
  "lat": 42.0150993,
  "lon": 21.4010355
},
{
  "type": "node",
  "id": 5260901723,
  "lat": 42.0150890,
  "lon": 21.4011474
},
{
  "type": "node",
  "id": 5260901724,
  "lat": 42.0150983,
  "lon": 21.4012150
},
{
  "type": "node",
  "id": 5260901725,
  "lat": 42.0151460,
  "lon": 21.4023390
},
{
  "type": "node",
  "id": 5260901726,
  "lat": 42.0150707,
  "lon": 21.4022909
},
{
  "type": "node",
  "id": 5260901727,
  "lat": 42.0151058,
  "lon": 21.4023225
},
{
  "type": "node",
  "id": 5260901728,
  "lat": 42.0151454,
  "lon": 21.4017414
},
{
  "type": "node",
  "id": 5260901729,
  "lat": 42.0151899,
  "lon": 21.4017377
},
{
  "type": "node",
  "id": 5260901730,
  "lat": 42.0152395,
  "lon": 21.4017458
},
{
  "type": "node",
  "id": 5260901731,
  "lat": 42.0150312,
  "lon": 21.4029470
},
{
  "type": "node",
  "id": 5260901732,
  "lat": 42.0150206,
  "lon": 21.4029075
},
{
  "type": "node",
  "id": 709048942,
  "lat": 42.0151514,
  "lon": 21.4071898
},
{
  "type": "node",
  "id": 709048943,
  "lat": 42.0149780,
  "lon": 21.4072304
},
{
  "type": "node",
  "id": 709048944,
  "lat": 42.0151045,
  "lon": 21.4077860
},
{
  "type": "node",
  "id": 709048945,
  "lat": 42.0152693,
  "lon": 21.4076445
},
{
  "type": "node",
  "id": 709060310,
  "lat": 42.0149441,
  "lon": 21.4047943
},
{
  "type": "node",
  "id": 709060315,
  "lat": 42.0152049,
  "lon": 21.4048201
},
{
  "type": "node",
  "id": 709060316,
  "lat": 42.0152290,
  "lon": 21.4042642
},
{
  "type": "node",
  "id": 2324063941,
  "lat": 42.0151111,
  "lon": 21.4071735
},
{
  "type": "node",
  "id": 2324063952,
  "lat": 42.0150699,
  "lon": 21.4071608
},
{
  "type": "node",
  "id": 2324063961,
  "lat": 42.0150045,
  "lon": 21.4071897
},
{
  "type": "node",
  "id": 4126731946,
  "lat": 42.0148390,
  "lon": 21.4056616
},
{
  "type": "node",
  "id": 4126731947,
  "lat": 42.0148772,
  "lon": 21.4059616
},
{
  "type": "node",
  "id": 4126731948,
  "lat": 42.0148777,
  "lon": 21.4067559
},
{
  "type": "node",
  "id": 4126731949,
  "lat": 42.0148619,
  "lon": 21.4051332
},
{
  "type": "node",
  "id": 4126731952,
  "lat": 42.0149985,
  "lon": 21.4048414
},
{
  "type": "node",
  "id": 4126731953,
  "lat": 42.0149529,
  "lon": 21.4042426
},
{
  "type": "node",
  "id": 4126731954,
  "lat": 42.0150205,
  "lon": 21.4048455
},
{
  "type": "node",
  "id": 4126731958,
  "lat": 42.0150674,
  "lon": 21.4059614
},
{
  "type": "node",
  "id": 4126731959,
  "lat": 42.0150679,
  "lon": 21.4067557
},
{
  "type": "node",
  "id": 4126731960,
  "lat": 42.0150888,
  "lon": 21.4048110
},
{
  "type": "node",
  "id": 4126731961,
  "lat": 42.0151764,
  "lon": 21.4056881
},
{
  "type": "node",
  "id": 4126731963,
  "lat": 42.0151994,
  "lon": 21.4051597
},
{
  "type": "node",
  "id": 4224249985,
  "lat": 42.0141886,
  "lon": 21.4043197
},
{
  "type": "node",
  "id": 4224249986,
  "lat": 42.0141950,
  "lon": 21.4041812
},
{
  "type": "node",
  "id": 4224250091,
  "lat": 42.0143891,
  "lon": 21.4043364
},
{
  "type": "node",
  "id": 4224250092,
  "lat": 42.0143955,
  "lon": 21.4041979
},
{
  "type": "node",
  "id": 4226751119,
  "lat": 42.0150652,
  "lon": 21.4069422
},
{
  "type": "node",
  "id": 4226751126,
  "lat": 42.0151760,
  "lon": 21.4067550
},
{
  "type": "node",
  "id": 4226751127,
  "lat": 42.0151748,
  "lon": 21.4069434
},
{
  "type": "node",
  "id": 5260901734,
  "lat": 42.0149311,
  "lon": 21.4047455
},
{
  "type": "node",
  "id": 5260901735,
  "lat": 42.0150671,
  "lon": 21.4048316
},
{
  "type": "node",
  "id": 5260901736,
  "lat": 42.0150449,
  "lon": 21.4048414
},
{
  "type": "node",
  "id": 5260901737,
  "lat": 42.0149682,
  "lon": 21.4048235
},
{
  "type": "node",
  "id": 5260901738,
  "lat": 42.0150372,
  "lon": 21.4071623
},
{
  "type": "node",
  "id": 5260901739,
  "lat": 42.0149725,
  "lon": 21.4072720
},
{
  "type": "node",
  "id": 7184731766,
  "lat": 42.0247937,
  "lon": 21.4070427
},
{
  "type": "node",
  "id": 7184731767,
  "lat": 42.0253018,
  "lon": 21.4065707
},
{
  "type": "node",
  "id": 7184731768,
  "lat": 42.0262413,
  "lon": 21.4084274
},
{
  "type": "node",
  "id": 8197105551,
  "lat": 42.0257214,
  "lon": 21.4085796
},
{
  "type": "node",
  "id": 1868776830,
  "lat": 42.0244746,
  "lon": 21.4339305
},
{
  "type": "node",
  "id": 1868776907,
  "lat": 42.0244708,
  "lon": 21.4321464
},
{
  "type": "node",
  "id": 778381611,
  "lat": 42.0258324,
  "lon": 21.4251862
},
{
  "type": "node",
  "id": 7927606147,
  "lat": 42.0259852,
  "lon": 21.4254266
},
{
  "type": "node",
  "id": 7927606148,
  "lat": 42.0257381,
  "lon": 21.4250725
},
{
  "type": "node",
  "id": 7927606149,
  "lat": 42.0255947,
  "lon": 21.4253515
},
{
  "type": "node",
  "id": 7927606150,
  "lat": 42.0255548,
  "lon": 21.4256734
},
{
  "type": "node",
  "id": 7927606151,
  "lat": 42.0255588,
  "lon": 21.4259201
},
{
  "type": "node",
  "id": 7927606152,
  "lat": 42.0256425,
  "lon": 21.4262098
},
{
  "type": "node",
  "id": 1868776786,
  "lat": 42.0250163,
  "lon": 21.4339284
},
{
  "type": "node",
  "id": 1868776821,
  "lat": 42.0250125,
  "lon": 21.4321443
},
{
  "type": "node",
  "id": 4168097992,
  "lat": 42.0398174,
  "lon": 21.3936508
},
{
  "type": "node",
  "id": 4168097995,
  "lat": 42.0401043,
  "lon": 21.3947612
},
{
  "type": "node",
  "id": 4168097996,
  "lat": 42.0402915,
  "lon": 21.3934255
},
{
  "type": "node",
  "id": 4168097997,
  "lat": 42.0405186,
  "lon": 21.3942731
},
{
  "type": "node",
  "id": 1381659940,
  "lat": 42.0389807,
  "lon": 21.4105432
},
{
  "type": "node",
  "id": 1381659941,
  "lat": 42.0387297,
  "lon": 21.4104883
},
{
  "type": "node",
  "id": 1381659942,
  "lat": 42.0386928,
  "lon": 21.4107942
},
{
  "type": "node",
  "id": 1381659943,
  "lat": 42.0389438,
  "lon": 21.4108491
}

  ]
}
